STARLINK-35882          
1 67088U 25298P   26001.16668980 -.01541720  00000+0 -26070-1 0  9995
2 67088  69.9987 194.9941 0003728 276.9451 186.9943 15.54685389  4097
STARLINK-35763          
1 67089U 25298Q   26001.16668980 -.01544072  00000+0 -26122-1 0  9997
2 67089  69.9988 194.9910 0003684 277.5041 188.3689 15.54677958  4094
STARLINK-36060          
1 67090U 25298R   26001.16668980 -.01537707  00000+0 -26002-1 0  9993
2 67090  69.9987 194.9884 0003694 277.0387 190.7496 15.54676619  4034
STARLINK-36097          
1 67091U 25298S   26001.16668980 -.01545942  00000+0 -26161-1 0  9990
2 67091  69.9989 194.9864 0003725 276.9737 192.7452 15.54673596  4098
STARLINK-35792          
1 67092U 25298T   26001.16668980 -.01540478  00000+0 -26058-1 0  9995
2 67092  69.9987 194.9842 0003607 278.7146 192.9166 15.54674127  4035
STARLINK-35784          
1 67093U 25298U   26001.16668980 -.01548038  00000+0 -26203-1 0  9998
2 67093  69.9986 194.9817 0003617 276.7533 196.8005 15.54673580  4099
STARLINK-36202          
1 67094U 25298V   26001.16668980 -.01551763  00000+0 -26283-1 0  9996
2 67094  69.9987 194.9795 0003518 276.6776 198.8120 15.54665313  4099
STARLINK-36227          
1 67095U 25298W   26001.16668980 -.01549281  00000+0 -26240-1 0  9992
2 67095  69.9985 194.9767 0003484 276.4484 200.9677 15.54661397  4037
STARLINK-36228          
1 67096U 25298X   26001.16668980 -.01549402  00000+0 -26235-1 0  9992
2 67096  69.9985 194.9752 0003594 277.8202 201.5029 15.54667018  4031
STARLINK-36222          
1 67097U 25298Y   26001.16668980 -.01550473  00000+0 -26260-1 0  9991
2 67097  69.9987 194.9724 0003516 277.3720 203.8744 15.54663548  4030
STARLINK-36205          
1 67098U 25298Z   26001.16668980 -.01598443  00000+0 -26662-1 0  9997
2 67098  69.9986 194.9704 0003387 279.3828 203.7958 15.54663798  4094
STARLINK-36193          
1 67099U 25298AA  26001.16668980 -.01800229  00000+0 -39958-1 0  9998
2 67099  69.9987 195.1470 0003300 271.2091  58.6241 15.47074080  4035
